OBJECT_NAME,OBJECT_ID,EPOCH,MEAN_MOTION,ECCENTRICITY,INCLINATION,RA_OF_ASC_NODE,ARG_OF_PERICENTER,MEAN_ANOMALY,EPHEMERIS_TYPE,CLASSIFICATION_TYPE,NORAD_CAT_ID,ELEMENT_SET_NO,REV_AT_EPOCH,BSTAR,MEAN_MOTION_DOT,MEAN_MOTION_DDOT
STARLINK-36281,2026-018S,2026-05-24T03:09:59.709312,15.33449563,.0001209,97.2840,209.2420,89.0753,271.0629,0,U,67605,999,1889,.45798E-3,.14741E-3,0
STARLINK-35843,2026-018T,2026-05-24T04:08:44.945952,15.33419498,.0000515,97.2841,209.3371,78.8634,281.2666,0,U,67606,999,1890,.21368E-3,.6824E-4,0
STARLINK-36351,2026-018U,2026-05-24T03:49:09.093792,15.33432984,.0000721,97.2848,209.3560,117.2450,242.8866,0,U,67607,999,1890,.68356E-3,.22049E-3,0
STARLINK-36411,2026-018V,2026-05-24T03:13:54.535008,15.33445007,.0000521,97.2842,209.2380,122.1654,237.9640,0,U,67608,999,1889,.51457E-3,.16574E-3,0
STARLINK-36312,2026-018W,2026-05-24T03:45:14.224032,15.33474575,.0000406,97.2841,209.3600,100.8940,259.2348,0,U,67609,999,1890,.51391E-3,.16567E-3,0
STARLINK-36387,2026-018X,2026-05-24T03:30:50.883264,15.75268769,.0001513,97.2833,213.8011,114.8971,245.2452,0,U,67610,999,1919,.14842E-2,.228032E-2,0
STARLINK-36636,2026-018Y,2026-05-24T03:21:44.460288,15.33442831,.0000374,97.2840,209.2293,240.9687,119.1518,0,U,67611,999,1889,.32991E-3,.1059E-3,0
STARLINK-36407,2026-018Z,2026-05-24T03:37:24.091392,15.33441365,.0000077,97.2850,209.3683,16.1833,343.9412,0,U,67612,999,1895,.39749E-3,.12777E-3,0
STARLINK-36597,2026-018AA,2026-05-24T03:02:09.754656,15.33448148,.000067,97.2853,209.2481,99.7421,260.3897,0,U,67613,999,1889,.49144E-3,.15825E-3,0
NEONSAT-1A,2026-019A,2026-05-23T21:21:12.926016,15.08267322,.0011708,97.4241,264.8672,276.4095,83.5800,0,U,67614,999,1715,.14735E-3,.2225E-4,0
STARLINK-36548,2026-020A,2026-05-24T02:28:44.739840,15.27583300,.0000894,42.9991,74.1968,256.7939,103.2813,0,U,67617,999,1764,.39562E-3,.10642E-3,0
STARLINK-36601,2026-020B,2026-05-24T02:08:22.986816,15.27590950,.0001823,43.0012,74.0713,268.8066,91.2577,0,U,67618,999,1764,.24859E-3,.6587E-4,0
STARLINK-36119,2026-020C,2026-05-24T03:53:39.060096,15.27585478,.0001032,43.0028,73.7763,261.2628,98.8107,0,U,67619,999,1765,.3171E-3,.8475E-4,0
STARLINK-36607,2026-020D,2026-05-24T04:26:44.143296,15.27592743,.0001059,43.0070,73.0639,255.0192,105.0542,0,U,67620,999,1766,.35496E-3,.9522E-4,0
STARLINK-36615,2026-020E,2026-05-24T02:32:26.608992,15.27580695,.0000655,43.0014,74.1937,271.7052,88.3725,0,U,67621,999,1764,.39979E-3,.10755E-3,0
STARLINK-36614,2026-020F,2026-05-24T03:38:50.874144,15.27583740,.0001778,43.0003,73.6908,278.8108,81.2542,0,U,67622,999,1765,.39752E-3,.10694E-3,0
STARLINK-36600,2026-020G,2026-05-24T02:13:56.771616,15.27585343,.0000983,43.0000,74.1159,267.0368,93.0371,0,U,67623,999,1764,.45528E-3,.12289E-3,0
STARLINK-36439,2026-020H,2026-05-24T04:58:12.010080,15.27568001,.0001256,43.0023,73.2475,269.1027,90.9681,0,U,67624,999,1766,.51237E-3,.13859E-3,0
STARLINK-36438,2026-020J,2026-05-24T03:35:08.871936,15.27587088,.000109,43.0020,73.6753,261.5386,98.5342,0,U,67625,999,1765,.50902E-3,.13774E-3,0
STARLINK-36436,2026-020K,2026-05-24T04:37:50.658816,15.27584564,.0001323,43.0056,73.1298,267.3807,92.6893,0,U,67626,999,1766,.35577E-3,.9542E-4,0
STARLINK-36502,2026-020L,2026-05-24T03:18:29.568672,15.27586898,.0001511,43.0031,73.5886,273.5477,86.5202,0,U,67627,999,1765,.37384E-3,.10041E-3,0
STARLINK-36532,2026-020M,2026-05-24T01:36:55.869120,15.27582109,.0001126,43.0033,73.9015,257.9238,102.1487,0,U,67628,999,1764,.20979E-3,.5516E-4,0
STARLINK-36367,2026-020N,2026-05-23T23:53:32.172000,15.27556642,.0001352,43.0032,74.2287,255.0295,105.0407,0,U,67629,999,1763,.73066E-3,.19884E-3,0
STARLINK-36416,2026-020P,2026-05-24T01:55:26.344128,15.27585614,.0001234,43.0018,74.0112,278.9022,81.1690,0,U,67630,999,1764,.4268E-3,.11503E-3,0
STARLINK-36527,2026-020Q,2026-05-24T02:41:41.803296,15.27582912,.0001191,42.9998,74.2547,269.4106,90.6609,0,U,67631,999,1764,.28198E-3,.7506E-4,0
STARLINK-36633,2026-020R,2026-05-24T03:55:29.856864,15.27594708,.0001277,43.0012,73.7721,273.8184,86.2522,0,U,67632,999,1765,.6873E-3,.18707E-3,0
STARLINK-36637,2026-020S,2026-05-24T01:53:35.157696,15.27593059,.0001376,43.0021,74.0003,280.3720,79.6977,0,U,67633,999,1764,.64391E-3,.17506E-3,0
STARLINK-36617,2026-020T,2026-05-24T02:45:23.734656,15.27593563,.0001095,43.0027,74.2722,264.3144,95.7583,0,U,67634,999,1764,.50002E-3,.13528E-3,0
STARLINK-36627,2026-020U,2026-05-24T04:50:48.594912,15.27596826,.0001475,43.0042,73.2034,258.9969,101.0717,0,U,67635,999,1766,.56534E-3,.15335E-3,0
STARLINK-36624,2026-020V,2026-05-23T23:42:25.214976,15.27586308,.0001314,43.0049,74.1598,239.5339,120.5383,0,U,67636,999,1763,.74299E-3,.20243E-3,0
STARLINK-36610,2026-020W,2026-05-24T04:56:20.636160,15.27591827,.0001596,43.0016,73.2273,264.8578,95.2091,0,U,67637,999,1766,.3941E-3,.10602E-3,0
STARLINK-36599,2026-020X,2026-05-24T02:39:50.538240,15.27584453,.0000832,43.0031,74.2326,272.4815,87.5941,0,U,67638,999,1764,.25358E-3,.6723E-4,0
STARLINK-36595,2026-020Y,2026-05-24T01:59:08.139840,15.27593880,.0000779,43.0000,74.0157,252.4377,107.6390,0,U,67639,999,1764,.68984E-3,.18777E-3,0
STARLINK-36570,2026-020Z,2026-05-23T20:50:45.761280,15.27584310,.0000846,43.0004,74.9939,232.6794,127.3981,0,U,67640,999,1761,.57703E-3,.15652E-3,0
STARLINK-36514,2026-020AA,2026-05-24T02:36:09.974592,15.27602519,.0000665,43.0020,74.2102,247.3497,112.7285,0,U,67641,999,1764,.64444E-3,.17526E-3,0
STARLINK-36556,2026-020AB,2026-05-24T02:30:35.591040,15.27594391,.0000734,43.0014,74.1882,240.7421,119.3357,0,U,67642,999,1764,.20596E-3,.5412E-4,0
STARLINK-36533,2026-020AC,2026-05-24T04:47:05.765856,15.27589059,.0001509,43.0048,73.1853,273.0768,86.9911,0,U,67643,999,1766,.46669E-3,.12606E-3,0
STARLINK-36623,2026-020AD,2026-05-23T23:49:49.357632,15.27590719,.0001587,43.0053,74.2053,250.3264,109.7417,0,U,67644,999,1763,.5406E-3,.14648E-3,0
STARLINK-36619,2026-020AE,2026-05-23T23:47:58.522848,15.27592528,.0001201,43.0049,74.1963,262.5097,97.5618,0,U,67645,999,1763,.52767E-3,.14292E-3,0
ALSAT-3B,2026-021A,2026-05-24T02:46:35.823360,15.23106078,.0013909,97.4590,218.0315,246.5674,113.4100,0,U,67646,999,1720,.1851E-3,.4305E-4,0
STARLINK-36719,2026-022A,2026-05-24T02:12:40.406112,15.33456134,.0001551,97.2825,177.2895,90.5697,269.5724,0,U,67648,999,1712,.48332E-3,.15566E-3,0
STARLINK-36342,2026-022B,2026-05-24T02:10:52.963392,15.33452698,.0000489,97.2858,178.3614,107.7846,252.3450,0,U,67649,999,1719,.15398E-3,.49E-4,0
STARLINK-36703,2026-022C,2026-05-24T01:25:40.741248,15.33480920,.0001367,97.2838,177.3355,110.0925,250.0465,0,U,67650,999,1712,.11545E-2,.37425E-3,0
STARLINK-36696,2026-022D,2026-05-24T01:49:11.000928,15.33444519,.0001752,97.2849,177.3132,102.1881,257.9558,0,U,67651,999,1712,.38763E-3,.1246E-3,0
STARLINK-36699,2026-022E,2026-05-24T01:02:11.616864,15.33445623,.0001028,97.2848,177.3578,190.5372,169.5849,0,U,67652,999,1712,.35095E-3,.11272E-3,0
STARLINK-36694,2026-022F,2026-05-24T02:00:55.749312,15.33443060,.0001427,97.2845,177.3045,94.8570,265.2835,0,U,67653,999,1712,.57675E-3,.18589E-3,0
STARLINK-36620,2026-022G,2026-05-24T01:37:26.103072,15.33445664,.0000973,97.2846,177.3232,95.3196,264.8157,0,U,67654,999,1712,.32306E-3,.10369E-3,0
STARLINK-36720,2026-022H,2026-05-24T01:13:56.637408,15.33443248,.0000972,97.2843,177.3476,110.0966,250.0381,0,U,67655,999,1712,.43296E-3,.13928E-3,0
STARLINK-36688,2026-022J,2026-05-24T02:24:26.847936,15.33423171,.000099,97.2845,177.4329,126.5692,233.5642,0,U,67656,999,1713,.17069E-2,.55398E-3,0
STARLINK-36706,2026-022K,2026-05-24T01:53:05.811072,15.33444278,.0001066,97.2848,177.3100,113.7290,246.4065,0,U,67657,999,1712,.53696E-3,.17299E-3,0
STARLINK-36701,2026-022L,2026-05-24T01:41:21.481728,15.33434872,.0001256,97.2838,177.3205,132.6861,227.4488,0,U,67658,999,1712,.45102E-3,.14509E-3,0
STARLINK-36642,2026-022M,2026-05-24T01:29:36.195072,15.33451096,.0000825,97.2840,177.3316,105.4986,254.6347,0,U,67659,999,1712,.43014E-3,.13839E-3,0
STARLINK-36673,2026-022N,2026-05-24T01:17:51.436320,15.33448187,.0001026,97.2845,177.3431,158.5697,201.5589,0,U,67660,999,1712,.59398E-3,.19151E-3,0
STARLINK-36674,2026-022P,2026-05-24T01:06:06.647328,15.33464172,.0001203,97.2841,177.3549,115.3813,244.7555,0,U,67661,999,1712,.21258E-3,.6798E-4,0
STARLINK-36700,2026-022Q,2026-05-24T02:16:34.826592,15.33440409,.0001379,97.2847,177.4418,93.2500,266.8900,0,U,67662,999,1713,.17068E-3,.5438E-4,0
STARLINK-36675,2026-022R,2026-05-24T02:28:20.114112,15.33449438,.0001529,97.2845,177.4308,94.0343,266.1074,0,U,67663,999,1713,.36905E-3,.1186E-3,0
STARLINK-36404,2026-022S,2026-05-24T02:08:45.531168,15.33440824,.0001572,97.2848,177.2961,96.2266,263.9156,0,U,67664,999,1712,.55087E-3,.17749E-3,0
STARLINK-36399,2026-022T,2026-05-24T02:04:51.730176,15.33438536,.0001476,97.2845,177.3003,99.5805,260.5605,0,U,67665,999,1712,.40919E-3,.13156E-3,0
STARLINK-36365,2026-022U,2026-05-24T01:57:00.758592,15.33442620,.0001259,97.2845,177.3075,92.3028,267.8358,0,U,67666,999,1712,.20797E-3,.6644E-4,0
STARLINK-36622,2026-022V,2026-05-24T01:45:15.884064,15.33446756,.0001116,97.2852,177.3190,120.4042,239.7311,0,U,67667,999,1712,.31804E-3,.10207E-3,0
STARLINK-36625,2026-022W,2026-05-24T01:33:31.169376,15.33442725,.0000807,97.2844,177.3293,90.6233,269.5102,0,U,67668,999,1712,.25163E-3,.8057E-4,0
STARLINK-36639,2026-022X,2026-05-24T01:21:46.522944,15.33446283,.0001042,97.2840,177.3420,97.8428,262.2934,0,U,67669,999,1712,.64363E-3,.20762E-3,0
STARLINK-36596,2026-022Y,2026-05-24T01:10:01.346016,15.33465355,.0001418,97.2834,177.3495,105.1315,255.0084,0,U,67670,999,1712,.69476E-3,.22436E-3,0
STARLINK-36297,2026-022Z,2026-05-24T02:20:30.219936,15.33444761,.0001144,97.2843,177.4388,101.5774,258.5597,0,U,67671,999,1713,.35945E-3,.11547E-3,0
STARLINK-36616,2026-022AA,2026-05-24T00:58:17.092704,15.33446332,.0001927,97.2838,177.3638,86.3486,273.7977,0,U,67672,999,1712,.48889E-3,.15742E-3,0
